CTC1_L_00550001-01
1 16904U 22751X   26070.40840278  .00000000  00000+0  00000-0 0  9994
2 16904  97.3000   0.0000 0000000   0.0000   0.0000 15.28598846    18
CTC1_L_00550001-02
1 16905U 26965OW  26070.40840278  .00000000  00000+0  00000-0 0  9996
2 16905  97.3000   0.0000 0000000   0.0000  45.0000 15.28598846    18
CTC1_L_00550001-03
1 16906U 26489BO  26070.40840278  .00000000  00000+0  00000-0 0  9998
2 16906  97.3000   0.0000 0000000   0.0000  90.0000 15.28598846    19
CTC1_L_00550001-04
1 16907U 22352ST  26070.40840278  .00000000  00000+0  00000-0 0  9994
2 16907  97.3000   0.0000 0000000   0.0000 135.0000 15.28598846    10
CTC1_L_00550001-05
1 16908U 24019LC  26070.40840278  .00000000  00000+0  00000-0 0  9997
2 16908  97.3000   0.0000 0000000   0.0000 180.0000 15.28598846    11
CTC1_L_00550001-06
1 16909U 22257GU  26070.40840278  .00000000  00000+0  00000-0 0  9990
2 16909  97.3000   0.0000 0000000   0.0000 225.0000 15.28598846    12
CTC1_L_00550001-07
1 16910U 23589W   26070.40840278  .00000000  00000+0  00000-0 0  9991
2 16910  97.3000   0.0000 0000000   0.0000 270.0000 15.28598846    14
CTC1_L_00550001-08
1 16911U 26584DH  26070.40840278  .00000000  00000+0  00000-0 0  9990
2 16911  97.3000   0.0000 0000000   0.0000 315.0000 15.28598846    15
CTC1_L_00550002-01
1 16912U 22882YP  26070.40840278  .00000000  00000+0  00000-0 0  9998
2 16912  97.3000  12.0000 0000000   0.0000   6.0000 15.28598846    16
CTC1_L_00550002-02
1 16913U 26466AL  26070.40840278  .00000000  00000+0  00000-0 0  9991
2 16913  97.3000  12.0000 0000000   0.0000  51.0000 15.28598846    17
CTC1_L_00550002-03
1 16914U 23106CI  26070.40840278  .00000000  00000+0  00000-0 0  9990
2 16914  97.3000  12.0000 0000000   0.0000  96.0000 15.28598846    17
CTC1_L_00550002-04
1 16915U 26545HD  26070.40840278  .00000000  00000+0  00000-0 0  9991
2 16915  97.3000  12.0000 0000000   0.0000 141.0000 15.28598846    19
CTC1_L_00550002-05
1 16916U 22376VD  26070.40840278  .00000000  00000+0  00000-0 0  9990
2 16916  97.3000  12.0000 0000000   0.0000 186.0000 15.28598846    19
CTC1_L_00550002-06
1 16917U 22585BF  26070.40840278  .00000000  00000+0  00000-0 0  9993
2 16917  97.3000  12.0000 0000000   0.0000 231.0000 15.28598846    11
CTC1_L_00550002-07
1 16918U 24939TJ  26070.40840278  .00000000  00000+0  00000-0 0  9999
2 16918  97.3000  12.0000 0000000   0.0000 276.0000 15.28598846    11
CTC1_L_00550002-08
1 16919U 26158RW  26070.40840278  .00000000  00000+0  00000-0 0  9995
2 16919  97.3000  12.0000 0000000   0.0000 321.0000 15.28598846    13
CTC1_L_00550003-01
1 16920U 22617PF  26070.40840278  .00000000  00000+0  00000-0 0  9993
2 16920  97.3000  24.0000 0000000   0.0000  12.0000 15.28598846    15
CTC1_L_00550003-02
1 16921U 26747BT  26070.40840278  .00000000  00000+0  00000-0 0  9992
2 16921  97.3000  24.0000 0000000   0.0000  57.0000 15.28598846    15
CTC1_L_00550003-03
1 16922U 23910NJ  26070.40840278  .00000000  00000+0  00000-0 0  9992
2 16922  97.3000  24.0000 0000000   0.0000 102.0000 15.28598846    17
CTC1_L_00550003-04
1 16923U 25232EV  26070.40840278  .00000000  00000+0  00000-0 0  9992
2 16923  97.3000  24.0000 0000000   0.0000 147.0000 15.28598846    17
CTC1_L_00550003-05
1 16924U 22574VZ  26070.40840278  .00000000  00000+0  00000-0 0  9999
2 16924  97.3000  24.0000 0000000   0.0000 192.0000 15.28598846    18
CTC1_L_00550003-06
1 16925U 26662OT  26070.40840278  .00000000  00000+0  00000-0 0  9992
2 16925  97.3000  24.0000 0000000   0.0000 237.0000 15.28598846    19
CTC1_L_00550003-07
1 16926U 24139NZ  26070.40840278  .00000000  00000+0  00000-0 0  9990
2 16926  97.3000  24.0000 0000000   0.0000 282.0000 15.28598846    10
CTC1_L_00550003-08
1 16927U 24809TZ  26070.40840278  .00000000  00000+0  00000-0 0  9995
2 16927  97.3000  24.0000 0000000   0.0000 327.0000 15.28598846    11
CTC1_L_00550004-01
1 16928U 23916XA  26070.40840278  .00000000  00000+0  00000-0 0  9994
2 16928  97.3000  36.0000 0000000   0.0000  18.0000 15.28598846    12
CTC1_L_00550004-02
1 16929U 22521QV  26070.40840278  .00000000  00000+0  00000-0 0  9996
2 16929  97.3000  36.0000 0000000   0.0000  63.0000 15.28598846    13
CTC1_L_00550004-03
1 16930U 25640RY  26070.40840278  .00000000  00000+0  00000-0 0  9993
2 16930  97.3000  36.0000 0000000   0.0000 108.0000 15.28598846    15
CTC1_L_00550004-04
1 16931U 26202EC  26070.40840278  .00000000  00000+0  00000-0 0  9999
2 16931  97.3000  36.0000 0000000   0.0000 153.0000 15.28598846    16
CTC1_L_00550004-05
1 16932U 25024FC  26070.40840278  .00000000  00000+0  00000-0 0  9991
2 16932  97.3000  36.0000 0000000   0.0000 198.0000 15.28598846    16
CTC1_L_00550004-06
1 16933U 25403AZ  26070.40840278  .00000000  00000+0  00000-0 0  9993
2 16933  97.3000  36.0000 0000000   0.0000 243.0000 15.28598846    18
CTC1_L_00550004-07
1 16934U 25433IV  26070.40840278  .00000000  00000+0  00000-0 0  9997
2 16934  97.3000  36.0000 0000000   0.0000 288.0000 15.28598846    18
CTC1_L_00550004-08
1 16935U 25139ET  26070.40840278  .00000000  00000+0  00000-0 0  9991
2 16935  97.3000  36.0000 0000000   0.0000 333.0000 15.28598846    10
CTC1_L_00550005-01
1 16936U 26152ES  26070.40840278  .00000000  00000+0  00000-0 0  9998
2 16936  97.3000  48.0000 0000000   0.0000  24.0000 15.28598846    11
CTC1_L_00550005-02
1 16937U 26372ZA  26070.40840278  .00000000  00000+0  00000-0 0  9993
2 16937  97.3000  48.0000 0000000   0.0000  69.0000 15.28598846    11
CTC1_L_00550005-03
1 16938U 22397PZ  26070.40840278  .00000000  00000+0  00000-0 0  9997
2 16938  97.3000  48.0000 0000000   0.0000 114.0000 15.28598846    13
CTC1_L_00550005-04
1 16939U 24347VP  26070.40840278  .00000000  00000+0  00000-0 0  9995
2 16939  97.3000  48.0000 0000000   0.0000 159.0000 15.28598846    13
CTC1_L_00550005-05
1 16940U 26348RN  26070.40840278  .00000000  00000+0  00000-0 0  9990
2 16940  97.3000  48.0000 0000000   0.0000 204.0000 15.28598846    16
CTC1_L_00550005-06
1 16941U 23870YZ  26070.40840278  .00000000  00000+0  00000-0 0  9998
2 16941  97.3000  48.0000 0000000   0.0000 249.0000 15.28598846    16
CTC1_L_00550005-07
1 16942U 23500MJ  26070.40840278  .00000000  00000+0  00000-0 0  9999
2 16942  97.3000  48.0000 0000000   0.0000 294.0000 15.28598846    17
CTC1_L_00550005-08
1 16943U 25099ZI  26070.40840278  .00000000  00000+0  00000-0 0  9995
2 16943  97.3000  48.0000 0000000   0.0000 339.0000 15.28598846    18
CTC1_L_00550006-01
1 16944U 24932XH  26070.40840278  .00000000  00000+0  00000-0 0  9991
2 16944  97.3000  60.0000 0000000   0.0000  30.0000 15.28598846    11
CTC1_L_00550006-02
1 16945U 26051TZ  26070.40840278  .00000000  00000+0  00000-0 0  9996
2 16945  97.3000  60.0000 0000000   0.0000  75.0000 15.28598846    11
CTC1_L_00550006-03
1 16946U 23988LT  26070.40840278  .00000000  00000+0  00000-0 0  9993
2 16946  97.3000  60.0000 0000000   0.0000 120.0000 15.28598846    13
CTC1_L_00550006-04
1 16947U 22522ZQ  26070.40840278  .00000000  00000+0  00000-0 0  9997
2 16947  97.3000  60.0000 0000000   0.0000 165.0000 15.28598846    13
CTC1_L_00550006-05
1 16948U 22705YP  26070.40840278  .00000000  00000+0  00000-0 0  9991
2 16948  97.3000  60.0000 0000000   0.0000 210.0000 15.28598846    15
CTC1_L_00550006-06
1 16949U 25004EN  26070.40840278  .00000000  00000+0  00000-0 0  9997
2 16949  97.3000  60.0000 0000000   0.0000 255.0000 15.28598846    15
CTC1_L_00550006-07
1 16950U 22556NU  26070.40840278  .00000000  00000+0  00000-0 0  9998
2 16950  97.3000  60.0000 0000000   0.0000 300.0000 15.28598846    18
CTC1_L_00550006-08
1 16951U 25195S   26070.40840278  .00000000  00000+0  00000-0 0  9991
2 16951  97.3000  60.0000 0000000   0.0000 345.0000 15.28598846    18
CTC1_L_00550007-01
1 16952U 25134WH  26070.40840278  .00000000  00000+0  00000-0 0  9995
2 16952  97.3000  72.0000 0000000   0.0000  36.0000 15.28598846    19
CTC1_L_00550007-02
1 16953U 25095KS  26070.40840278  .00000000  00000+0  00000-0 0  9992
2 16953  97.3000  72.0000 0000000   0.0000  81.0000 15.28598846    10
CTC1_L_00550007-03
1 16954U 25334MA  26070.40840278  .00000000  00000+0  00000-0 0  9999
2 16954  97.3000  72.0000 0000000   0.0000 126.0000 15.28598846    11
CTC1_L_00550007-04
1 16955U 24192BU  26070.40840278  .00000000  00000+0  00000-0 0  9991
2 16955  97.3000  72.0000 0000000   0.0000 171.0000 15.28598846    12
CTC1_L_00550007-05
1 16956U 24923JA  26070.40840278  .00000000  00000+0  00000-0 0  9994
2 16956  97.3000  72.0000 0000000   0.0000 216.0000 15.28598846    13
CTC1_L_00550007-06
1 16957U 26430BR  26070.40840278  .00000000  00000+0  00000-0 0  9990
2 16957  97.3000  72.0000 0000000   0.0000 261.0000 15.28598846    14
CTC1_L_00550007-07
1 16958U 25143JJ  26070.40840278  .00000000  00000+0  00000-0 0  9991
2 16958  97.3000  72.0000 0000000   0.0000 306.0000 15.28598846    15
CTC1_L_00550007-08
1 16959U 26289WK  26070.40840278  .00000000  00000+0  00000-0 0  9994
2 16959  97.3000  72.0000 0000000   0.0000 351.0000 15.28598846    16
CTC1_L_00550008-01
1 16960U 22247IE  26070.40840278  .00000000  00000+0  00000-0 0  9996
2 16960  97.3000  84.0000 0000000   0.0000  42.0000 15.28598846    18
CTC1_L_00550008-02
1 16961U 26248KY  26070.40840278  .00000000  00000+0  00000-0 0  9992
2 16961  97.3000  84.0000 0000000   0.0000  87.0000 15.28598846    18
CTC1_L_00550008-03
1 16962U 24839PY  26070.40840278  .00000000  00000+0  00000-0 0  9997
2 16962  97.3000  84.0000 0000000   0.0000 132.0000 15.28598846    10
CTC1_L_00550008-04
1 16963U 25980PT  26070.40840278  .00000000  00000+0  00000-0 0  9996
2 16963  97.3000  84.0000 0000000   0.0000 177.0000 15.28598846    10
CTC1_L_00550008-05
1 16964U 24360DC  26070.40840278  .00000000  00000+0  00000-0 0  9998
2 16964  97.3000  84.0000 0000000   0.0000 222.0000 15.28598846    12
CTC1_L_00550008-06
1 16965U 23263TR  26070.40840278  .00000000  00000+0  00000-0 0  9990
2 16965  97.3000  84.0000 0000000   0.0000 267.0000 15.28598846    12
